OBJECT C                
1 57582U 23117C   25186.16326009  .00006206  00000+0  24162-3 0  9991
2 57582  97.4443 261.0058 0009601  42.6092 317.5889 15.26315674105413
